{
  "type": "FeatureCollection",
  "features": [
    {
      "type": "Feature",
      "properties": {
        "norad_id": 32376,
        "name": "COSMO-SKYMED 2",
        "group": "resource",
        "lat": 45.49633296748118,
        "lon": 3.2622932877811945,
        "alt_km": 618.0449599382446,
        "timestamp": "2025-12-19T22:41:52.035706+00:00",
        "meta_object_name": "COSMO-SKYMED 2",
        "meta_object_id": "2007-059A",
        "meta_epoch": "2025-12-19T18:51:19.609632",
        "meta_mean_motion": 14.82150622,
        "meta_eccentricity": 0.0001355,
        "meta_inclination": 97.8803,
        "meta_ra_of_asc_node": 175.0033,
        "meta_arg_of_pericenter": 82.8736,
        "meta_mean_anomaly": 277.2631,
        "meta_ephemeris_type": 0,
        "meta_classification_type": "U",
        "meta_norad_cat_id": 32376,
        "meta_element_set_no": 999,
        "meta_rev_at_epoch": 97542,
        "meta_bstar": 5.2403e-05,
        "meta_mean_motion_dot": 3.65e-06,
        "meta_mean_motion_ddot": 0,
        "tle_line1": "1 32376U 07059A   25353.78564363  .00000365  00000+0  52403-4 0  9993",
        "tle_line2": "2 32376  97.8803 175.0033 0001355  82.8736 277.2631 14.82150622975421"
      },
      "geometry": {
        "type": "Point",
        "coordinates": [
          3.2622932877811945,
          45.49633296748118
        ]
      }
    },
    {
      "type": "Feature",
      "properties": {
        "norad_id": 32382,
        "name": "RADARSAT-2",
        "group": "resource",
        "lat": 8.091763702408851,
        "lon": 179.66115811251592,
        "alt_km": 793.5701563541297,
        "timestamp": "2025-12-19T22:41:52.035717+00:00",
        "meta_object_name": "RADARSAT-2",
        "meta_object_id": "2007-061A",
        "meta_epoch": "2025-12-19T18:32:20.125824",
        "meta_mean_motion": 14.29983658,
        "meta_eccentricity": 0.0001117,
        "meta_inclination": 98.5791,
        "meta_ra_of_asc_node": 358.2606,
        "meta_arg_of_pericenter": 84.6089,
        "meta_mean_anomaly": 275.5221,
        "meta_ephemeris_type": 0,
        "meta_classification_type": "U",
        "meta_norad_cat_id": 32382,
        "meta_element_set_no": 999,
        "meta_rev_at_epoch": 94031,
        "meta_bstar": 4.7805e-05,
        "meta_mean_motion_dot": 8e-07,
        "meta_mean_motion_ddot": 0,
        "tle_line1": "1 32382U 07061A   25353.77245516  .00000080  00000+0  47805-4 0  9992",
        "tle_line2": "2 32382  98.5791 358.2606 0001117  84.6089 275.5221 14.29983658940310"
      },
      "geometry": {
        "type": "Point",
        "coordinates": [
          179.66115811251592,
          8.091763702408851
        ]
      }
    },
    {
      "type": "Feature",
      "properties": {
        "norad_id": 32783,
        "name": "CARTOSAT-2A",
        "group": "resource",
        "lat": -10.336314605993817,
        "lon": -137.8866560929922,
        "alt_km": 643.8265315533608,
        "timestamp": "2025-12-19T22:41:52.035727+00:00",
        "meta_object_name": "CARTOSAT-2A",
        "meta_object_id": "2008-021A",
        "meta_epoch": "2025-12-19T18:35:30.999840",
        "meta_mean_motion": 14.78949815,
        "meta_eccentricity": 0.0011296,
        "meta_inclination": 97.7925,
        "meta_ra_of_asc_node": 43.3788,
        "meta_arg_of_pericenter": 341.8077,
        "meta_mean_anomaly": 18.2729,
        "meta_ephemeris_type": 0,
        "meta_classification_type": "U",
        "meta_norad_cat_id": 32783,
        "meta_element_set_no": 999,
        "meta_rev_at_epoch": 95228,
        "meta_bstar": 0.00013182,
        "meta_mean_motion_dot": 9.23e-06,
        "meta_mean_motion_ddot": 0,
        "tle_line1": "1 32783U 08021A   25353.77466435  .00000923  00000+0  13182-3 0  9995",
        "tle_line2": "2 32783  97.7925  43.3788 0011296 341.8077  18.2729 14.78949815952287"
      },
      "geometry": {
        "type": "Point",
        "coordinates": [
          -137.8866560929922,
          -10.336314605993817
        ]
      }
    },
    {
      "type": "Feature",
      "properties": {
        "norad_id": 33320,
        "name": "HUANJING 1A (HJ-1A)",
        "group": "resource",
        "lat": 8.463312654417873,
        "lon": 163.089778041447,
        "alt_km": 633.3422741294871,
        "timestamp": "2025-12-19T22:41:52.035738+00:00",
        "meta_object_name": "HUANJING 1A (HJ-1A)",
        "meta_object_id": "2008-041A",
        "meta_epoch": "2025-12-19T18:41:26.213568",
        "meta_mean_motion": 14.83413363,
        "meta_eccentricity": 0.0019654,
        "meta_inclination": 97.6535,
        "meta_ra_of_asc_node": 341.7833,
        "meta_arg_of_pericenter": 12.0503,
        "meta_mean_anomaly": 348.1178,
        "meta_ephemeris_type": 0,
        "meta_classification_type": "U",
        "meta_norad_cat_id": 33320,
        "meta_element_set_no": 999,
        "meta_rev_at_epoch": 93180,
        "meta_bstar": 9.4393e-05,
        "meta_mean_motion_dot": 7.26e-06,
        "meta_mean_motion_ddot": 0,
        "tle_line1": "1 33320U 08041A   25353.77877562  .00000726  00000+0  94393-4 0  9997",
        "tle_line2": "2 33320  97.6535 341.7833 0019654  12.0503 348.1178 14.83413363931802"
      },
      "geometry": {
        "type": "Point",
        "coordinates": [
          163.089778041447,
          8.463312654417873
        ]
      }
    },
    {
      "type": "Feature",
      "properties": {
        "norad_id": 33321,
        "name": "HUANJING 1B (HJ-1B)",
        "group": "resource",
        "lat": 16.93540297156257,
        "lon": -16.72088355894989,
        "alt_km": 599.3387518389081,
        "timestamp": "2025-12-19T22:41:52.035748+00:00",
        "meta_object_name": "HUANJING 1B (HJ-1B)",
        "meta_object_id": "2008-041B",
        "meta_epoch": "2025-12-19T19:22:56.416224",
        "meta_mean_motion": 14.82838657,
        "meta_eccentricity": 0.0038024,
        "meta_inclination": 97.6394,
        "meta_ra_of_asc_node": 345.4894,
        "meta_arg_of_pericenter": 53.4452,
        "meta_mean_anomaly": 307.0252,
        "meta_ephemeris_type": 0,
        "meta_classification_type": "U",
        "meta_norad_cat_id": 33321,
        "meta_element_set_no": 999,
        "meta_rev_at_epoch": 93182,
        "meta_bstar": 0.00013557,
        "meta_mean_motion_dot": 1.059e-05,
        "meta_mean_motion_ddot": 0,
        "tle_line1": "1 33321U 08041B   25353.80759741  .00001059  00000+0  13557-3 0  9992",
        "tle_line2": "2 33321  97.6394 345.4894 0038024  53.4452 307.0252 14.82838657931823"
      },
      "geometry": {
        "type": "Point",
        "coordinates": [
          -16.72088355894989,
          16.93540297156257
        ]
      }
    },
    {
      "type": "Feature",
      "properties": {
        "norad_id": 33331,
        "name": "GEOEYE 1",
        "group": "resource",
        "lat": -73.28789097137211,
        "lon": -143.27495226392307,
        "alt_km": 683.3390858921111,
        "timestamp": "2025-12-19T22:41:52.035759+00:00",
        "meta_object_name": "GEOEYE 1",
        "meta_object_id": "2008-042A",
        "meta_epoch": "2025-12-19T14:58:38.315712",
        "meta_mean_motion": 14.64709001,
        "meta_eccentricity": 0.0002798,
        "meta_inclination": 98.1245,
        "meta_ra_of_asc_node": 64.818,
        "meta_arg_of_pericenter": 254.893,
        "meta_mean_anomaly": 105.1963,
        "meta_ephemeris_type": 0,
        "meta_classification_type": "U",
        "meta_norad_cat_id": 33331,
        "meta_element_set_no": 999,
        "meta_rev_at_epoch": 92386,
        "meta_bstar": 8.6091e-05,
        "meta_mean_motion_dot": 4.11e-06,
        "meta_mean_motion_ddot": 0,
        "tle_line1": "1 33331U 08042A   25353.62405458  .00000411  00000+0  86091-4 0  9992",
        "tle_line2": "2 33331  98.1245  64.8180 0002798 254.8930 105.1963 14.64709001923863"
      },
      "geometry": {
        "type": "Point",
        "coordinates": [
          -143.27495226392307,
          -73.28789097137211
        ]
      }
    },
    {
      "type": "Feature",
      "properties": {
        "norad_id": 33396,
        "name": "THEOS",
        "group": "resource",
        "lat": 35.267243319912076,
        "lon": 45.689640124665225,
        "alt_km": 822.1616533042215,
        "timestamp": "2025-12-19T22:41:52.035769+00:00",
        "meta_object_name": "THEOS",
        "meta_object_id": "2008-049A",
        "meta_epoch": "2025-12-19T17:27:25.786656",
        "meta_mean_motion": 14.20097794,
        "meta_eccentricity": 0.0001173,
        "meta_inclination": 98.5863,
        "meta_ra_of_asc_node": 51.6113,
        "meta_arg_of_pericenter": 94.9354,
        "meta_mean_anomaly": 265.1957,
        "meta_ephemeris_type": 0,
        "meta_classification_type": "U",
        "meta_norad_cat_id": 33396,
        "meta_element_set_no": 999,
        "meta_rev_at_epoch": 89249,
        "meta_bstar": 9.2102e-05,
        "meta_mean_motion_dot": 1.54e-06,
        "meta_mean_motion_ddot": 0,
        "tle_line1": "1 33396U 08049A   25353.72738179  .00000154  00000+0  92102-4 0  9994",
        "tle_line2": "2 33396  98.5863  51.6113 0001173  94.9354 265.1957 14.20097794892498"
      },
      "geometry": {
        "type": "Point",
        "coordinates": [
          45.689640124665225,
          35.267243319912076
        ]
      }
    }
  ]
}